{
 "generated_at": "2026-07-17T07:16:58Z",
 "sources": [
  {
   "name": "CelesTrak",
   "url": "https://celestrak.org/NORAD/elements/",
   "license": "frei verfügbar; Attribution. Ursprünglich USSPACECOM/Space-Track."
  },
  {
   "name": "GCAT (J. McDowell, planet4589.org)",
   "url": "https://planet4589.org/space/gcat/",
   "license": "CC-BY 4.0"
  }
 ],
 "satellites": [
  {
   "norad": 64572,
   "name": "ICEYE-X52",
   "intl": "2025-135AW",
   "group": "sar",
   "gcat": {
    "class": "B",
    "category": "IMG-R",
    "owner": "ICEYE",
    "state": "FI"
   },
   "omm": {
    "OBJECT_NAME": "ICEYE-X52",
    "OBJECT_ID": "2025-135AW",
    "EPOCH": "2026-07-16T19:33:24.975360",
    "MEAN_MOTION": 14.93656042,
    "ECCENTRICITY": 0.0001371,
    "INCLINATION": 97.7769,
    "RA_OF_ASC_NODE": 311.7426,
    "ARG_OF_PERICENTER": 182.0639,
    "MEAN_ANOMALY": 178.0575,
    "EPHEMERIS_TYPE": 0,
    "CLASSIFICATION_TYPE": "U",
    "NORAD_CAT_ID": 64572,
    "ELEMENT_SET_NO": 999,
    "REV_AT_EPOCH": 5830,
    "BSTAR": 0.000087689,
    "MEAN_MOTION_DOT": 0.0000087,
    "MEAN_MOTION_DDOT": 0
   }
  },
  {
   "norad": 64584,
   "name": "ICEYE-X53",
   "intl": "2025-135BJ",
   "group": "sar",
   "gcat": {
    "class": "B",
    "category": "IMG-R",
    "owner": "ICEYE",
    "state": "FI"
   },
   "omm": {
    "OBJECT_NAME": "ICEYE-X53",
    "OBJECT_ID": "2025-135BJ",
    "EPOCH": "2026-07-16T19:48:16.000416",
    "MEAN_MOTION": 15.00896998,
    "ECCENTRICITY": 0.0001996,
    "INCLINATION": 97.736,
    "RA_OF_ASC_NODE": 314.4762,
    "ARG_OF_PERICENTER": 165.1886,
    "MEAN_ANOMALY": 194.9397,
    "EPHEMERIS_TYPE": 0,
    "CLASSIFICATION_TYPE": "U",
    "NORAD_CAT_ID": 64584,
    "ELEMENT_SET_NO": 999,
    "REV_AT_EPOCH": 5852,
    "BSTAR": 0.00011076,
    "MEAN_MOTION_DOT": 0.0000135,
    "MEAN_MOTION_DDOT": 0
   }
  },
  {
   "norad": 64570,
   "name": "ICEYE-X54",
   "intl": "2025-135AU",
   "group": "sar",
   "gcat": {
    "class": "B",
    "category": "IMG-R",
    "owner": "ICEYE",
    "state": "FI"
   },
   "omm": {
    "OBJECT_NAME": "ICEYE-X54",
    "OBJECT_ID": "2025-135AU",
    "EPOCH": "2026-07-16T19:34:48.774720",
    "MEAN_MOTION": 14.94737249,
    "ECCENTRICITY": 0.0002158,
    "INCLINATION": 97.7747,
    "RA_OF_ASC_NODE": 311.9565,
    "ARG_OF_PERICENTER": 176.2624,
    "MEAN_ANOMALY": 183.8612,
    "EPHEMERIS_TYPE": 0,
    "CLASSIFICATION_TYPE": "U",
    "NORAD_CAT_ID": 64570,
    "ELEMENT_SET_NO": 999,
    "REV_AT_EPOCH": 5832,
    "BSTAR": 0.00012976,
    "MEAN_MOTION_DOT": 0.00001352,
    "MEAN_MOTION_DDOT": 0
   }
  },
  {
   "norad": 64581,
   "name": "ICEYE-X55",
   "intl": "2025-135BF",
   "group": "sar",
   "gcat": {
    "class": "B",
    "category": "IMG-R",
    "owner": "ICEYE",
    "state": "FI"
   },
   "omm": {
    "OBJECT_NAME": "ICEYE-X55",
    "OBJECT_ID": "2025-135BF",
    "EPOCH": "2026-07-16T19:26:27.957120",
    "MEAN_MOTION": 14.95368525,
    "ECCENTRICITY": 0.0001945,
    "INCLINATION": 97.7768,
    "RA_OF_ASC_NODE": 312.3665,
    "ARG_OF_PERICENTER": 225.7013,
    "MEAN_ANOMALY": 134.4049,
    "EPHEMERIS_TYPE": 0,
    "CLASSIFICATION_TYPE": "U",
    "NORAD_CAT_ID": 64581,
    "ELEMENT_SET_NO": 999,
    "REV_AT_EPOCH": 5834,
    "BSTAR": 0.00016705,
    "MEAN_MOTION_DOT": 0.00001786,
    "MEAN_MOTION_DDOT": 0
   }
  },
  {
   "norad": 64574,
   "name": "ICEYE-X56",
   "intl": "2025-135AY",
   "group": "sar",
   "gcat": {
    "class": "B",
    "category": "IMG-R",
    "owner": "ICEYE",
    "state": "FI"
   },
   "omm": {
    "OBJECT_NAME": "ICEYE-X56",
    "OBJECT_ID": "2025-135AY",
    "EPOCH": "2026-07-16T19:15:06.447744",
    "MEAN_MOTION": 14.95768794,
    "ECCENTRICITY": 0.0001504,
    "INCLINATION": 97.7769,
    "RA_OF_ASC_NODE": 312.534,
    "ARG_OF_PERICENTER": 182.6615,
    "MEAN_ANOMALY": 177.4598,
    "EPHEMERIS_TYPE": 0,
    "CLASSIFICATION_TYPE": "U",
    "NORAD_CAT_ID": 64574,
    "ELEMENT_SET_NO": 999,
    "REV_AT_EPOCH": 5835,
    "BSTAR": 0.00018683,
    "MEAN_MOTION_DOT": 0.00002025,
    "MEAN_MOTION_DDOT": 0
   }
  },
  {
   "norad": 64578,
   "name": "ICEYE-X57",
   "intl": "2025-135BC",
   "group": "sar",
   "gcat": {
    "class": "B",
    "category": "IMG-R",
    "owner": "ICEUS",
    "state": "US"
   },
   "omm": {
    "OBJECT_NAME": "ICEYE-X57",
    "OBJECT_ID": "2025-135BC",
    "EPOCH": "2026-07-16T19:13:59.918880",
    "MEAN_MOTION": 15.00869645,
    "ECCENTRICITY": 0.0002167,
    "INCLINATION": 97.8031,
    "RA_OF_ASC_NODE": 314.3622,
    "ARG_OF_PERICENTER": 58.108,
    "MEAN_ANOMALY": 302.0354,
    "EPHEMERIS_TYPE": 0,
    "CLASSIFICATION_TYPE": "U",
    "NORAD_CAT_ID": 64578,
    "ELEMENT_SET_NO": 999,
    "REV_AT_EPOCH": 5846,
    "BSTAR": 0.00019622,
    "MEAN_MOTION_DOT": 0.00002435,
    "MEAN_MOTION_DDOT": 0
   }
  },
  {
   "norad": 66751,
   "name": "ICEYE-X58",
   "intl": "2025-276CP",
   "group": "sar",
   "gcat": {
    "class": "B",
    "category": "IMG-R",
    "owner": "ICEYE",
    "state": "FI"
   },
   "omm": {
    "OBJECT_NAME": "ICEYE-X58",
    "OBJECT_ID": "2025-276CP",
    "EPOCH": "2026-07-16T20:41:40.910784",
    "MEAN_MOTION": 15.17311704,
    "ECCENTRICITY": 0.00023,
    "INCLINATION": 97.4197,
    "RA_OF_ASC_NODE": 270.7066,
    "ARG_OF_PERICENTER": 205.0507,
    "MEAN_ANOMALY": 155.0615,
    "EPHEMERIS_TYPE": 0,
    "CLASSIFICATION_TYPE": "U",
    "NORAD_CAT_ID": 66751,
    "ELEMENT_SET_NO": 999,
    "REV_AT_EPOCH": 3491,
    "BSTAR": 0.000072482,
    "MEAN_MOTION_DOT": 0.00001379,
    "MEAN_MOTION_DDOT": 0
   }
  },
  {
   "norad": 66752,
   "name": "ICEYE-X59",
   "intl": "2025-276CQ",
   "group": "sar",
   "gcat": {
    "class": "B",
    "category": "IMG-R",
    "owner": "ELKED",
    "state": "GR"
   },
   "omm": {
    "OBJECT_NAME": "ICEYE-X59",
    "OBJECT_ID": "2025-276CQ",
    "EPOCH": "2026-07-16T03:30:07.582176",
    "MEAN_MOTION": 15.00758187,
    "ECCENTRICITY": 0.00010994,
    "INCLINATION": 97.4391,
    "RA_OF_ASC_NODE": 267.2057,
    "ARG_OF_PERICENTER": 139.2495,
    "MEAN_ANOMALY": 220.8812,
    "EPHEMERIS_TYPE": 0,
    "CLASSIFICATION_TYPE": "U",
    "NORAD_CAT_ID": 66752,
    "ELEMENT_SET_NO": 999,
    "REV_AT_EPOCH": 3461,
    "BSTAR": 0.00021152707,
    "MEAN_MOTION_DOT": 0.00002627,
    "MEAN_MOTION_DDOT": 0
   }
  },
  {
   "norad": 46497,
   "name": "ICEYE-X6",
   "intl": "2020-068M",
   "group": "sar",
   "gcat": {
    "class": "B",
    "category": "IMG-R",
    "owner": "ICEYE",
    "state": "FI"
   },
   "omm": {
    "OBJECT_NAME": "ICEYE-X6",
    "OBJECT_ID": "2020-068M",
    "EPOCH": "2026-07-16T22:02:46.455072",
    "MEAN_MOTION": 15.04672595,
    "ECCENTRICITY": 0.0007084,
    "INCLINATION": 98.0992,
    "RA_OF_ASC_NODE": 193.016,
    "ARG_OF_PERICENTER": 5.6452,
    "MEAN_ANOMALY": 354.4852,
    "EPHEMERIS_TYPE": 0,
    "CLASSIFICATION_TYPE": "U",
    "NORAD_CAT_ID": 46497,
    "ELEMENT_SET_NO": 999,
    "REV_AT_EPOCH": 31770,
    "BSTAR": 0.00010341,
    "MEAN_MOTION_DOT": 0.00001387,
    "MEAN_MOTION_DDOT": 0
   }
  },
  {
   "norad": 66753,
   "name": "ICEYE-X60",
   "intl": "2025-276CR",
   "group": "sar",
   "gcat": {
    "class": "B",
    "category": "IMG-R",
    "owner": "ELKED",
    "state": "GR"
   },
   "omm": {
    "OBJECT_NAME": "ICEYE-X60",
    "OBJECT_ID": "2025-276CR",
    "EPOCH": "2026-07-16T04:38:00.420288",
    "MEAN_MOTION": 15.10856389,
    "ECCENTRICITY": 0.0000732,
    "INCLINATION": 97.4136,
    "RA_OF_ASC_NODE": 269.0035,
    "ARG_OF_PERICENTER": 149.8638,
    "MEAN_ANOMALY": 210.2635,
    "EPHEMERIS_TYPE": 0,
    "CLASSIFICATION_TYPE": "U",
    "NORAD_CAT_ID": 66753,
    "ELEMENT_SET_NO": 999,
    "REV_AT_EPOCH": 3474,
    "BSTAR": 0.00013552,
    "MEAN_MOTION_DOT": 0.00002192,
    "MEAN_MOTION_DDOT": 0
   }
  },
  {
   "norad": 66754,
   "name": "ICEYE-X61",
   "intl": "2025-276CS",
   "group": "sar",
   "gcat": {
    "class": "B",
    "category": "IMG-R",
    "owner": "ARGUS/MON",
    "state": "PL"
   },
   "omm": {
    "OBJECT_NAME": "ICEYE-X61",
    "OBJECT_ID": "2025-276CS",
    "EPOCH": "2026-07-16T03:42:04.906944",
    "MEAN_MOTION": 15.18611689,
    "ECCENTRICITY": 0.0002168,
    "INCLINATION": 97.4194,
    "RA_OF_ASC_NODE": 270.1044,
    "ARG_OF_PERICENTER": 211.0636,
    "MEAN_ANOMALY": 149.047,
    "EPHEMERIS_TYPE": 0,
    "CLASSIFICATION_TYPE": "U",
    "NORAD_CAT_ID": 66754,
    "ELEMENT_SET_NO": 999,
    "REV_AT_EPOCH": 3481,
    "BSTAR": 0.000076983,
    "MEAN_MOTION_DOT": 0.00001526,
    "MEAN_MOTION_DDOT": 0
   }
  },
  {
   "norad": 66755,
   "name": "ICEYE-X62",
   "intl": "2025-276CT",
   "group": "sar",
   "gcat": {
    "class": "B",
    "category": "IMG-R",
    "owner": "ICEYE",
    "state": "FI"
   },
   "omm": {
    "OBJECT_NAME": "ICEYE-X62",
    "OBJECT_ID": "2025-276CT",
    "EPOCH": "2026-07-16T11:37:21.226080",
    "MEAN_MOTION": 15.10151436,
    "ECCENTRICITY": 0.0000901,
    "INCLINATION": 97.4194,
    "RA_OF_ASC_NODE": 268.7751,
    "ARG_OF_PERICENTER": 230.7044,
    "MEAN_ANOMALY": 129.4106,
    "EPHEMERIS_TYPE": 0,
    "CLASSIFICATION_TYPE": "U",
    "NORAD_CAT_ID": 66755,
    "ELEMENT_SET_NO": 999,
    "REV_AT_EPOCH": 3475,
    "BSTAR": 0.00016255,
    "MEAN_MOTION_DOT": 0.0000259,
    "MEAN_MOTION_DDOT": 0
   }
  },
  {
   "norad": 67372,
   "name": "ICEYE-X63",
   "intl": "2026-004K",
   "group": "sar",
   "gcat": {
    "class": "B",
    "category": "IMG-R",
    "owner": "ICEYE",
    "state": "FI"
   },
   "omm": {
    "OBJECT_NAME": "ICEYE-X63",
    "OBJECT_ID": "2026-004K",
    "EPOCH": "2026-07-16T14:18:26.102880",
    "MEAN_MOTION": 14.88350475,
    "ECCENTRICITY": 0.000535,
    "INCLINATION": 97.8014,
    "RA_OF_ASC_NODE": 195.7775,
    "ARG_OF_PERICENTER": 48.2974,
    "MEAN_ANOMALY": 311.8699,
    "EPHEMERIS_TYPE": 0,
    "CLASSIFICATION_TYPE": "U",
    "NORAD_CAT_ID": 67372,
    "ELEMENT_SET_NO": 999,
    "REV_AT_EPOCH": 2767,
    "BSTAR": 0.000052551,
    "MEAN_MOTION_DOT": 0.00000432,
    "MEAN_MOTION_DDOT": 0
   }
  }
 ]
}
